GLOBALSTAR M057         
1 25943U 99058A   25204.83691648 -.00000030  00000+0  57342-3 0  9999
2 25943  51.9964 244.1949 0002746  95.5290 264.5873 12.24827250171424
GLOBALSTAR M059         
1 25944U 99058B   25204.91277572 -.00000097  00000+0 -13160-3 0  9999
2 25944  52.0019 107.8186 0001169  30.8940  49.4858 11.99979940578450
GLOBALSTAR M056         
1 25945U 99058C   25204.93211582 -.00000140  00000+0 -60802-3 0  9995
2 25945  51.9963 108.7828 0000506 292.4632 149.1169 12.04780499167057
GLOBALSTAR M031         
1 25946U 99058D   25204.75213196  .00000051  00000+0  14328-2 0  9999
2 25946  51.9988 359.4156 0000662 223.6193 242.3810 12.16039735168991
GLOBALSTAR M039         
1 25961U 99062A   25204.82533538 -.00000122  00000+0 -99935-4 0  9994
2 25961  51.9836 157.1232 0002962  64.0771 296.0401 12.62329805184847
GLOBALSTAR M034         
1 25962U 99062B   25204.46385727  .00000013  00000+0  14927-2 0  9993
2 25962  51.9870 277.0917 0014470 111.0803 262.2752 11.79447084142670
GLOBALSTAR M029         
1 25963U 99062C   25204.74235877 -.00000082  00000+0  56342-4 0  9991
2 25963  51.9828 356.2843 0002639 172.2528 201.2696 11.99898465173511
GLOBALSTAR M061         
1 25964U 99062D   25204.90682550 -.00000082  00000+0 -29747-4 0  9994
2 25964  51.9793 100.4602 0006681  34.4880  48.0539 11.76776164125501
